OBJECT_NAME,OBJECT_ID,EPOCH,MEAN_MOTION,ECCENTRICITY,INCLINATION,RA_OF_ASC_NODE,ARG_OF_PERICENTER,MEAN_ANOMALY,EPHEMERIS_TYPE,CLASSIFICATION_TYPE,NORAD_CAT_ID,ELEMENT_SET_NO,REV_AT_EPOCH,BSTAR,MEAN_MOTION_DOT,MEAN_MOTION_DDOT
ORBCOMM FM06,1997-084G,2026-07-11T08:41:53.132928,14.47622091,.00012649,45.0144,296.3278,220.9817,182.2586,0,U,25118,999,49789,.19501165E-3,.58E-5,0
ORBCOMM FM04,1998-007C,2026-07-11T20:23:31.149312,14.35780960,.00419112,107.9632,220.1801,282.5727,77.0728,0,U,25159,999,48013,.16781914E-3,.357E-5,0
ORBCOMM FM19,1998-046C,2026-07-12T05:19:30.450144,14.39538200,.000333,44.9931,124.5568,42.9087,108.5699,0,U,25415,999,46038,.1967E-3,.477E-5,0
ORBCOMM FM20,1998-046D,2026-07-11T21:11:39.712992,14.38096936,.0001721,44.9932,134.3631,339.4017,20.6761,0,U,25416,999,46034,.15130809E-3,.32E-5,0
ORBCOMM FM27,1998-053G,2026-07-11T11:36:25.088544,14.39181226,.00024412,45.0035,219.9500,278.1343,81.9229,0,U,25481,999,45373,.15259703E-3,.334E-5,0
ORBCOMM FM32,1999-065C,2026-07-12T00:54:20.577024,14.37165596,.0005402,45.0156,55.6091,176.7379,183.3505,0,U,25982,999,39066,.15326E-3,.318E-5,0
ORBCOMM FM109,2014-040A,2026-07-11T09:52:04.973952,14.58870325,.00016494,47.0045,336.9567,310.9227,49.1516,0,U,40086,999,63788,.67459469E-4,.148E-5,0
ORBCOMM FM110,2015-081D,2026-07-11T14:55:01.664256,14.58915508,.00034383,47.0009,245.9084,207.7250,152.3453,0,U,41182,999,56119,.77906838E-4,.197E-5,0
ORBCOMM FM118,2015-081E,2026-07-10T15:05:16.976544,14.58901793,.00026519,47.0030,250.9400,164.1790,195.9179,0,U,41183,999,56115,.59775928E-4,.111E-5,0
ORBCOMM FM112,2015-081F,2026-07-11T05:58:44.266080,14.58935043,.00038914,46.9978,156.4607,312.3848,47.6708,0,U,41184,999,56246,.11894191E-3,.392E-5,0
ORBCOMM FM113,2015-081G,2026-07-11T23:31:04.744992,14.58880123,.0002383,46.9996,153.3938,309.4592,50.6083,0,U,41185,999,56255,.67215E-4,.147E-5,0
ORBCOMM FM108,2015-081J,2026-07-12T00:15:03.581568,14.58907733,.0002794,47.0052,64.8300,310.5793,49.4849,0,U,41187,999,56370,.10038E-3,.304E-5,0
ORBCOMM FM117,2015-081K,2026-07-12T01:04:17.745312,14.58894934,.000325,47.0015,63.2961,317.3276,42.7357,0,U,41188,999,56375,.96121E-4,.283E-5,0
ORBCOMM FM116,2015-081L,2026-07-11T06:30:55.735488,14.58903266,.00013799,47.0011,156.7408,218.1214,141.9574,0,U,41189,999,56245,.53498669E-4,.82E-6,0
